HAWK-11B                
1 62379U 24247C   26068.44730104  .00009093  00000+0  32842-3 0  9993
2 62379  45.0161 115.7610 0004690 333.0326  27.0314 15.28847070 67738
STARLINK-34453          
1 64441U 25130D   26068.44480197  .00022183  00000+0  75892-3 0  9998
2 64441  53.1600  89.8144 0001511  81.2023 278.9149 15.30196972 40663
